QIANFAN-60              
1 62790U 25016F   25273.45632892  .00000063  00000+0  77135-4 0  9991
2 62790  88.9732 110.6637 0014892 189.3455 170.7422 13.52524324 37336
QIANFAN-61              
1 62791U 25016G   25286.96865139  .00000061  00000+0  75249-4 0  9996
2 62791  88.9787 109.3855 0015489 149.8397 210.3649 13.50974294 39172
QIANFAN-62              
1 62792U 25016H   25286.97288808  .00000064  00000+0  79913-4 0  9995
2 62792  88.9733 109.2859 0016850 150.6737 209.5363 13.50968217 39168
QIANFAN-63              
1 62793U 25016J   25286.92341424  .00000066  00000+0  83763-4 0  9995
2 62793  88.9744 109.2384 0016759 155.9356 204.2581 13.50971222 39194
QIANFAN-64              
1 62794U 25016K   25286.96455565  .00000060  00000+0  73371-4 0  9990
2 62794  88.9728 109.2163 0014897 148.3320 211.8731 13.50972848 39196
QIANFAN-65              
1 62795U 25016L   25286.96046295  .00000058  00000+0  71375-4 0  9996
2 62795  88.9723 109.2449 0014672 149.9325 210.2672 13.50971810 39175
QIANFAN-66              
1 62796U 25016M   25284.76742828  .00000126  00000+0  17597-3 0  9999
2 62796  88.9747 109.4302 0015725 152.1511 208.0485 13.50966984 38920
QIANFAN-67              
1 62797U 25016N   25286.91929288  .00000077  00000+0  99891-4 0  9999
2 62797  88.9737 109.2390 0015701 152.8527 207.3449 13.50968621 39184
QIANFAN-68              
1 62798U 25016P   25286.98515800  .00000082  00000+0  10752-3 0  9992
2 62798  88.9736 109.2752 0015798 151.0099 209.1933 13.50970962 39175
QIANFAN-69              
1 62799U 25016Q   25287.00164777  .00000058  00000+0  71000-4 0  9997
2 62799  88.9715 109.1557 0016527 152.2266 207.9771 13.50968449 39213
QIANFAN-70              
1 62800U 25016R   25286.57358218 -.00000167  00000+0 -27734-3 0  9993
2 62800  88.9740 109.3259 0016256 144.3136 215.9105 13.50972411 39115
QIANFAN-71              
1 62801U 25016S   25286.93988986  .00000074  00000+0  96503-4 0  9991
2 62801  88.9730 109.2712 0016337 155.7384 204.4540 13.50972145 39164
QIANFAN-72              
1 62802U 25016T   25274.29087208  .00000084  00000+0  11481-3 0  9997
2 62802  88.9730 110.6012 0018440 200.3911 159.6505 13.49486897 37447
QIANFAN-73              
1 63159U 25046A   25286.90913455  .00000121  00000+0  16952-3 0  9999
2 63159  88.9796 326.2168 0012976 300.3348  59.6519 13.50969316 39333
QIANFAN-74              
1 63160U 25046B   25286.96673740  .00000128  00000+0  18012-3 0  9993
2 63160  88.9796 326.0992 0002188 100.0972 260.0426 13.50971329 39400
QIANFAN-75              
1 63161U 25046C   25286.95433902  .00000169  00000+0  24409-3 0  9999
2 63161  88.9798 326.3332 0014114 303.3006  56.6793 13.50978862 39272
QIANFAN-76              
1 63162U 25046D   25287.02435243  .00000070  00000+0  89669-4 0  9990
2 63162  88.9798 326.3069 0011681 304.5166  55.4882 13.50971754 39297
QIANFAN-77              
1 63163U 25046E   25286.90980704  .00000342  00000+0  23952-3 0  9998
2 63163  88.9794 324.8172 0012477 265.9679  94.0072 13.96069876 40100
QIANFAN-78              
1 63164U 25046F   25286.91739617  .00000138  00000+0  19515-3 0  9998
2 63164  88.9796 326.1826 0013103 307.0179  52.9773 13.50971657 39359
QIANFAN-79              
1 63165U 25046G   25286.94607500  .00000130  00000+0  18343-3 0  9997
2 63165  88.9800 326.2848 0012757 305.0224  54.9729 13.50970833 39307
QIANFAN-80              
1 63166U 25046H   25286.96264920  .00000143  00000+0  20295-3 0  9998
2 63166  88.9797 325.9915 0011836 310.4533  49.5585 13.50971414 39467
QIANFAN-81              
1 63167U 25046J   25287.01590578  .00000163  00000+0  23421-3 0  9993
2 63167  88.9797 326.0544 0012634 296.3784  63.6069 13.50986095 39426
QIANFAN-82              
1 63168U 25046K   25286.97498067  .00000136  00000+0  19202-3 0  9990
2 63168  88.9797 326.1022 0010918 306.4180  53.5964 13.50968485 39408
QIANFAN-83              
1 63169U 25046L   25286.96993233  .00000158  00000+0  18914-3 0  9998
2 63169  88.9797 325.9964 0011984 292.5630  67.4258 13.61962782 39462
QIANFAN-84              
1 63170U 25046M   25286.92928402  .00000091  00000+0  12239-3 0  9992
2 63170  88.9797 326.2399 0013805 301.4189  58.5612 13.50985978 39323
QIANFAN-85              
1 63171U 25046N   25286.92561299  .00000166  00000+0  23883-3 0  9990
2 63171  88.9796 326.1122 0011236 305.1788  54.8310 13.50971355 39393
QIANFAN-86              
1 63172U 25046P   25286.93385760  .00000142  00000+0  20217-3 0  9991
2 63172  88.9799 325.9721 0009201 311.3838  48.6521 13.50968373 39473
QIANFAN-87              
1 63173U 25046Q   25282.68330257  .00000145  00000+0  20656-3 0  9991
2 63173  88.9804 326.5243 0010016 319.1660  40.8739 13.50979787 38837
QIANFAN-88              
1 63174U 25046R   25283.51451471  .00000149  00000+0  21299-3 0  9995
2 63174  88.9800 326.3915 0010557 325.4993  34.5472 13.50973338 38972
QIANFAN-89              
1 63175U 25046S   25286.95837951  .00000150  00000+0  21320-3 0  9995
2 63175  88.9797 326.2256 0014484 301.6675  58.3063 13.50969566 39330
QIANFAN-90              
1 63176U 25046T   25286.98711719  .00000126  00000+0  17733-3 0  9998
2 63176  88.9798 326.1949 0011401 300.2542  59.7480 13.50971401 39355
